[{"OBJECT_NAME":"QIANFAN-28","OBJECT_ID":"2024-185K","EPOCH":"2026-03-09T23:07:15.953376","MEAN_MOTION":14.28222603,"ECCENTRICITY":0.00077666,"INCLINATION":88.9768,"RA_OF_ASC_NODE":66.7039,"ARG_OF_PERICENTER":21.3295,"MEAN_ANOMALY":338.8222,"EPHEMERIS_TYPE":0,"CLASSIFICATION_TYPE":"U","NORAD_CAT_ID":61561,"ELEMENT_SET_NO":999,"REV_AT_EPOCH":8262,"BSTAR":0.0004308774,"MEAN_MOTION_DOT":1.088e-5,"MEAN_MOTION_DDOT":0},{"OBJECT_NAME":"FENGYUN 1C DEB","OBJECT_ID":"1999-025CRR","EPOCH":"2026-03-08T23:32:18.137472","MEAN_MOTION":14.61831805,"ECCENTRICITY":0.01600603,"INCLINATION":98.9494,"RA_OF_ASC_NODE":247.8434,"ARG_OF_PERICENTER":29.2865,"MEAN_ANOMALY":121.8295,"EPHEMERIS_TYPE":0,"CLASSIFICATION_TYPE":"U","NORAD_CAT_ID":32123,"ELEMENT_SET_NO":999,"REV_AT_EPOCH":72634,"BSTAR":0.00022758961,"MEAN_MOTION_DOT":1.3e-5,"MEAN_MOTION_DDOT":0}]
